{
    "links": {
        "self": "http://www.neowsapp.com/rest/v1/neo/3725153?api_key=iIulBulltgU6a56xZRHN4H3l9WmuAYTsLGpBGhQ2"
    },
    "id": "3725153",
    "neo_reference_id": "3725153",
    "name": "(2015 PL9)",
    "designation": "2015 PL9",
    "nasa_jpl_url": "http://ssd.jpl.nasa.gov/sbdb.cgi?sstr=3725153",
    "absolute_magnitude_h": 27.1,
    "estimated_diameter": {
        "kilometers": {
            "estimated_diameter_min": 0.0101054342,
            "estimated_diameter_max": 0.0225964377
        },
        "meters": {
            "estimated_diameter_min": 10.1054341542,
            "estimated_diameter_max": 22.5964377109
        },
        "miles": {
            "estimated_diameter_min": 0.0062792237,
            "estimated_diameter_max": 0.0140407711
        },
        "feet": {
            "estimated_diameter_min": 33.1543125905,
            "estimated_diameter_max": 74.1352966996
        }
    },
    "is_potentially_hazardous_asteroid": false,
    "close_approach_data": [
        {
            "close_approach_date": "2013-11-16",
            "close_approach_date_full": "2013-Nov-16 11:42",
            "epoch_date_close_approach": 1384602120000,
            "relative_velocity": {
                "kilometers_per_second": "8.9327805491",
                "kilometers_per_hour": "32158.0099766091",
                "miles_per_hour": "19981.736810188"
            },
            "miss_distance": {
                "astronomical": "1.7509130764",
                "lunar": "681.1051867196",
                "kilometers": "261932866.784587268",
                "miles": "162757536.2527015784"
            },
            "orbiting_body": "Juptr"
        },
        {
            "close_approach_date": "2015-08-08",
            "close_approach_date_full": "2015-Aug-08 01:49",
            "epoch_date_close_approach": 1438998540000,
            "relative_velocity": {
                "kilometers_per_second": "11.2348756796",
                "kilometers_per_hour": "40445.5524465071",
                "miles_per_hour": "25131.2934076644"
            },
            "miss_distance": {
                "astronomical": "0.0031763534",
                "lunar": "1.2356014726",
                "kilometers": "475175.703007258",
                "miles": "295260.4904378404"
            },
            "orbiting_body": "Earth"
        },
        {
            "close_approach_date": "2015-08-08",
            "close_approach_date_full": "2015-Aug-08 05:10",
            "epoch_date_close_approach": 1439010600000,
            "relative_velocity": {
                "kilometers_per_second": "12.0961206506",
                "kilometers_per_hour": "43546.0343420617",
                "miles_per_hour": "27057.8122832661"
            },
            "miss_distance": {
                "astronomical": "0.0053397683",
                "lunar": "2.0771698687",
                "kilometers": "798817.963973521",
                "miles": "496362.4661797498"
            },
            "orbiting_body": "Moon"
        },
        {
            "close_approach_date": "2049-07-23",
            "close_approach_date_full": "2049-Jul-23 15:06",
            "epoch_date_close_approach": 2510665560000,
            "relative_velocity": {
                "kilometers_per_second": "5.4744262213",
                "kilometers_per_hour": "19707.9343967493",
                "miles_per_hour": "12245.744014469"
            },
            "miss_distance": {
                "astronomical": "0.8508985368",
                "lunar": "330.9995308152",
                "kilometers": "127292608.691396616",
                "miles": "79095959.3124646608"
            },
            "orbiting_body": "Juptr"
        }
    ],
    "orbital_data": {
        "orbit_id": "7",
        "orbit_determination_date": "2019-12-04 07:14:53",
        "first_observation_date": "2015-08-10",
        "last_observation_date": "2015-08-17",
        "data_arc_in_days": 7,
        "observations_used": 26,
        "orbit_uncertainty": "7",
        "minimum_orbit_intersection": ".000149358",
        "jupiter_tisserand_invariant": "2.993",
        "epoch_osculation": "2459000.5",
        "eccentricity": ".6491105534164371",
        "semi_major_axis": "2.750803121659266",
        "inclination": "5.103213935140495",
        "ascending_node_longitude": "315.1096556242422",
        "orbital_period": "1666.432356830026",
        "perihelion_distance": ".9652277850193572",
        "perihelion_argument": "331.4058802428558",
        "aphelion_distance": "4.536378458299175",
        "perihelion_time": "2458887.792641829052",
        "mean_anomaly": "24.34821238032403",
        "mean_motion": ".2160303708245383",
        "equinox": "J2000",
        "orbit_class": {
            "orbit_class_type": "APO",
            "orbit_class_description": "Near-Earth asteroid orbits which cross the Earth’s orbit similar to that of 1862 Apollo",
            "orbit_class_range": "a (semi-major axis) > 1.0 AU; q (perihelion) < 1.017 AU"
        }
    },
    "is_sentry_object": false
}